IRIDIUM 171             
1 43929U 19002H   24102.89322531  .00000167  00000+0  52510-4 0  9991
2 43929  86.3975 326.5976 0002090  82.4888 277.6545 14.34219905274821
IRIDIUM 170             
1 43930U 19002J   24102.85553248  .00001049  00000+0  16245-3 0  9994
2 43930  86.6093 326.4445 0002263  93.8055 266.3421 14.72270617282096
IRIDIUM 167             
1 43931U 19002K   24102.88688491  .00000136  00000+0  41556-4 0  9997
2 43931  86.3965 326.3975 0002055  84.5441 275.5989 14.34217194274826
IRIDIUM 181             
1 56726U 23068S   24103.53378444  .00000527  00000+0  14998-3 0  9990
2 56726  86.8693  16.6368 0002252  79.0985 281.0470 14.43566156 47663
IRIDIUM 177             
1 56727U 23068T   24102.63752395  .00001365  00000+0  17608-3 0  9994
2 56727  86.2007 346.9670 0002278  84.7943 275.3538 14.80243599 48539
IRIDIUM 174             
1 56728U 23068U   24102.63212644  .00001426  00000+0  18410-3 0  9993
2 56728  86.2015 347.0679 0002579  87.8074 272.3442 14.80243122 48536
IRIDIUM 178             
1 56729U 23068V   24103.23520277  .00001662  00000+0  21526-3 0  9999
2 56729  86.5832   1.1094 0002652  92.8897 267.2628 14.80242337 48623
IRIDIUM 179             
1 56730U 23068W   24103.22977541  .00001693  00000+0  21926-3 0  9998
2 56730  86.6843   4.4121 0002612  91.3991 268.7530 14.80244271 48627
